{
  "type": "Feature",
  "properties": {
    "pnu": "4415011300200410001",
    "address": "충청남도 공주시 태봉동 산 41-1",
    "source_label": "K-GeoP 공개 필지 경계",
    "source_url": "https://www.kgeop.go.kr/info/infoMap.do?initMode=L",
    "retrieved_at": "2026-10-09T03:56:07.343732+00:00",
    "source_crs": "EPSG:4326",
    "data_mode": "public_snapshot",
    "is_demo": false,
    "reference_only": true
  },
  "geometry": {
    "type": "MultiPolygon",
    "coordinates": [
      [
        [
          [
            127.080716975843,
            36.4145431877001
          ],
          [
            127.082632895566,
            36.414629530359
          ],
          [
            127.082633513292,
            36.414623140683
          ],
          [
            127.082444927274,
            36.4144804251018
          ],
          [
            127.082238761658,
            36.4140492403103
          ],
          [
            127.082212225293,
            36.4139838967849
          ],
          [
            127.082145897376,
            36.4138113505603
          ],
          [
            127.082178956729,
            36.4136510110382
          ],
          [
            127.082128614955,
            36.4135300907259
          ],
          [
            127.082021906627,
            36.4134565826447
          ],
          [
            127.082015514583,
            36.4133452120127
          ],
          [
            127.082183021903,
            36.413345008818
          ],
          [
            127.08220881877,
            36.4132454397189
          ],
          [
            127.082204425457,
            36.4131048880284
          ],
          [
            127.082278438888,
            36.4128722924153
          ],
          [
            127.081925955502,
            36.4128187488585
          ],
          [
            127.081925425146,
            36.4127585333856
          ],
          [
            127.081782387406,
            36.4127329194196
          ],
          [
            127.081648745973,
            36.412769884869
          ],
          [
            127.081646978339,
            36.4137297075708
          ],
          [
            127.081258339159,
            36.4141935899751
          ],
          [
            127.081216372359,
            36.4142915115085
          ],
          [
            127.080969691472,
            36.4144128915995
          ],
          [
            127.080716975843,
            36.4145431877001
          ]
        ]
      ]
    ]
  }
}
